#cP2010  5  4  0  0  0.00000000      96 ORBIT IGS05 HLM  IGS
## 1582 172800.00000000   900.00000000 55320 0.0000000000000
+   31   G01G02G03G04G05G06G07G08G09G10G11G12G13G14G15G16G17
+        G18G19G20G21G22G23G24G26G27G28G29G30G31G32  0  0  0
+          0  0  0  0  0  0  0  0  0  0  0  0  0  0  0  0  0
+          0  0  0  0  0  0  0  0  0  0  0  0  0  0  0  0  0
+          0  0  0  0  0  0  0  0  0  0  0  0  0  0  0  0  0
++         4  2  2  2  2  2  2  3  3  2  2  2  2  3  2  2  2
++         2  2  2  2  2  2  2  2  2  2  2  2  2  2  0  0  0
++         0  0  0  0  0  0  0  0  0  0  0  0  0  0  0  0  0
++         0  0  0  0  0  0  0  0  0  0  0  0  0  0  0  0  0
++         0  0  0  0  0  0  0  0  0  0  0  0  0  0  0  0  0
%c G  cc GPS ccc cccc cccc cccc cccc ccccc ccccc ccccc ccccc
%c cc cc ccc ccc cccc cccc cccc cccc ccccc ccccc ccccc ccccc
%f  1.2500000  1.025000000  0.00000000000  0.000000000000000
%f  0.0000000  0.000000000  0.00000000000  0.000000000000000
%i    0    0    0    0      0      0      0      0         0
%i    0    0    0    0      0      0      0      0         0
/* FINAL ORBIT COMBINATION FROM WEIGHTED AVERAGE OF:        
/* cod emr esa gfz grg jpl mit ngs sio                      
/* REFERENCED TO IGS TIME (IGST) AND TO WEIGHTED MEAN POLE: 
/* PCV:IGS05_1581 OL/AL:FES2004  NONE     Y  ORB:CMB CLK:CMB
*  2010  5  4 12 45  0.00000000
PG01 -23952.350357 -10449.479773   5110.014717 999999.999999
PG02  22173.605200 -14023.111440   1926.524407    252.549628 10  8  7 118       
PG03 -11016.310212  16960.852656  16680.667652    550.492889  4  4  5 132       
PG04  24003.040272  -3390.376393 -11431.486296     74.438831  5  6  8 115       
PG05  14663.316135  -8016.992823  20643.748695     -2.343897  9  2  3 121       
PG06 -13773.165068  12655.284359  18988.412744    649.426633  4  5  5 140       
PG07   9818.104345  11613.226165  21777.533218     -0.149515  6  5  5 119       
PG08  20391.626575   2979.475360  17036.965895      5.224444  6  3  7 109       
PG09  10195.817126 -18616.465630 -16479.711741      4.543168  7  6  9 152       
PG10  21260.385007    297.597399  15942.254712    -41.801134  5  7  3 102       
PG11  -3110.509622  20669.281569 -16454.103382    -60.465115  3  2  5  98       
PG12  -3547.162409 -17866.414858 -19332.611088   -119.233155  6  4  4 137       
PG13   4992.482742  23517.516646  11120.860052    304.780125  5  6  4  64       
PG14 -13914.791083  -6123.405262 -21660.850922     41.631548  9  7  5  98       
PG15   7152.989727 -23622.267148   9670.637447   -277.914664  6  4  4 112       
PG16 -19178.723180   2451.681336  18378.470416    -68.071354  6  9  5 120       
PG17  14428.493223   7031.908050 -21091.429357    148.602150  4  5  5  78       
PG18 -18648.040165 -18041.388073   6808.965100     66.069804  5  3  6 114       
PG19  -8436.583833  23599.063503   8350.720551    -32.540452  6  5  5 115       
PG20   6268.419570  18746.844831 -17900.119201     56.677715  4  4  3 102       
PG21 -14606.127398  -9520.586604  20509.867223    -57.833489  5  5  1  97       
PG22 -23566.641546 -11408.576749  -4575.971263    172.916352  8  2  4 103       
PG23    680.180955  26267.590534   2403.312799    372.048933  5  4  5 130       
PG24 -19234.933466  -4848.335420  17648.378636    284.448285  5  6  8 120       
PG26    232.759418 -26151.019262  -3391.022749    -47.442204  5  6  7  85       
PG27  13662.542711 -18342.740151 -12689.717703    148.908170  6  6  8 142       
PG28  22889.672915  13550.404758  -2027.525774    -17.033279  9  6  6  99       
PG29  -5890.276749 -23770.210184  10429.418638    117.438080  5  4  5  77       
PG30 -14195.180956 -18523.529454 -13125.910464    239.543227  8  6  6 102       
PG31 -24203.454245   5875.292664  -9267.685235    -38.519264  8  6  3 113       
PG32  -3236.328101  15776.920968 -20836.177048     36.999138  5  6  3  88       
*  2010  5  4 13  0  0.00000000
PG01 -24216.845303 -10863.690031   2297.461035 999999.999999
PG02  22407.611200 -13755.379421   -913.694611    252.552819 10  8  7 119       
PG03 -11494.627625  14920.181428  18235.281441    550.497595  4  4  5 128       
PG04  22901.503933  -2487.312217 -13697.611306     74.445948  5  6  8 103       
PG05  16620.321658  -6798.060138  19579.191214     -2.344366  9  3  4 117       
PG06 -14030.189518  10450.385476  20131.351630    649.417122  3  6  5 129       
PG07   7657.612212  12869.234207  21923.340505     -0.149566  6  4  4 123       
PG08  18604.542408   3936.236125  18751.741838      5.223708  5  4  7 106       
PG09  11689.865979 -19389.842285 -14390.274939      4.545277  5  5  9 146       
PG10  22644.742668   1345.536895  13904.566827    -41.801702  4  7  3 109       
PG11  -4613.511999  21665.532018 -14662.883509    -60.467126  4  3  5  83       
PG12  -1531.613457 -16790.321416 -20509.121440   -119.229153  7  5  3 141       
PG13   4768.275191  24643.929896   8503.325106    304.780027  6  6  4 107       
PG14 -13766.494024  -8575.779631 -20926.532924     41.635693  8  8  6 114       
PG15   7424.286803 -22377.213405  12129.728925   -277.909727  7  4  5 121       
PG16 -20812.360673   1318.988239  16655.517095    -68.074666  7  9  5  95       
PG17  14314.246813   9412.783897 -20246.680447    148.604334  5  4  5  94       
PG18 -17750.462717 -17809.538943   9391.061199     66.071944  3  2  6 116       
PG19  -8612.226774  22475.699483  10917.693387    -32.542531  7  5  5 123       
PG20   4333.981876  17893.791046 -19297.384282     56.677466  4  4  2 103       
PG21 -12613.896492 -10706.725552  21189.484330    -57.835771  5  5  2  97       
PG22 -23728.379863 -11879.552456  -1808.231480    172.915453  8  3  4 100       
PG23    420.313890  26380.416586   -482.559287    372.047699  4  5  5 147       
PG24 -17443.469136  -5952.369669  19138.899743    284.451249  5  5  8 122       
PG26    444.134744 -26300.690861   -460.665303    -47.446621  5  5  6 103       
PG27  14951.669240 -18947.682173 -10226.913405    148.911223  6  6  8 139       
PG28  22881.831242  13790.388437    828.658741    -17.032533  9  6  6  91       
PG29  -5633.722641 -24795.975808   7841.002833    117.440550  5  3  4  89       
PG30 -12716.334540 -17976.917599 -15284.363165    239.546715  8  7  6 110       
PG31 -23231.563690   5108.316806 -11791.316669    -38.517227  8  6  3 119       
PG32  -5300.945597  14396.439713 -21366.869484     36.991830  5  6  3  96       
*  2010  5  4 13 15  0.00000000
PG01 -24216.172513 -11121.793926   -554.291404 999999.999999
PG02  22387.122799 -13316.959485  -3737.736878    252.556091 10  9  7  72       
PG03 -12093.400512  12747.182812  19463.608104    550.501625  5  4  5 133       
PG04  21645.324844  -1398.276662 -15734.278817     74.453359  5  6  9 112       
PG05  18512.073089  -5744.286641  18177.971059     -2.345015  9  4  5 112       
PG06 -14404.678822   8154.116130  20932.165727    649.407653  4  6  4 132       
PG07   5570.496963  14237.803686  21691.483288     -0.149879  5  4  4 115       
PG08  16720.567824   5084.474062  20149.092292      5.225109  4  3  7  86       
PG09  12940.995759 -20102.816243 -12060.521792      4.547676  4  5  9 144       
PG10  23863.766950   2205.125090  11628.821249    -41.801852  4  7  3 112       
PG11  -5932.129614  22567.307006 -12619.471253    -60.468791  5  4  5  91       
PG12    641.392277 -15772.144097 -21332.307916   -119.224911  7  5  3 129       
PG13   4610.455742  25474.024655   5738.468521    304.779691  6  6  5 112       
PG14 -13753.665202 -10926.501261 -19828.696904     41.640000  8  8  7 103       
PG15   7779.031377 -20881.966948  14378.978356   -277.904529  7  5  5 121       
PG16 -22318.528701    375.920462  14650.052039    -68.078225  8  9  6  78       
PG17  14319.298082  11678.487762 -19052.039119    148.606601  6  4  6  98       
PG18 -16596.730220 -17491.758904  11816.547419     66.074370  3  2  7 114       
PG19  -8839.718329  21082.467306  13293.988366    -32.544872  7  5  5 117       
PG20   2234.786054  17078.364286 -20366.708129     56.676963  4  5  1 107       
PG21 -10630.808203 -12022.284594  21517.460086    -57.837455  6  5  2 105       
PG22 -23636.572445 -12193.192237    990.514384    172.914723  7  3  4  83       
PG23    148.986050  26178.106451  -3359.964794    372.046553  4  5  5 129       
PG24 -15582.710291  -7219.632863  20300.480945    284.453745  5  5  8 106       
PG26    651.237403 -26124.668853   2477.788599    -47.450754  5  5  7  98       
PG27  15964.694428 -19445.842598  -7580.991194    148.913443  6  6  8 107       
PG28  22606.844072  13875.131772   3670.895808    -17.031167  9  6  6  99       
PG29  -5420.812061 -25534.340328   5118.385125    117.443142  6  3  4  97       
PG30 -11006.194773 -17415.870300 -17186.912786    239.549945  7  7  5  99       
PG31 -22073.162133   4135.188913 -14111.734356    -38.515295  9  6  5 111       
PG32  -7470.208652  13100.857233 -21519.091126     36.984145  6  6  3 112       
EOF
